[{"OBJECT_NAME":"YUNHAI-1 01","OBJECT_ID":"2016-068A","EPOCH":"2026-03-09T23:53:51.242208","MEAN_MOTION":14.3266794,"ECCENTRICITY":0.00048409,"INCLINATION":98.5892,"RA_OF_ASC_NODE":80.9046,"ARG_OF_PERICENTER":339.8191,"MEAN_ANOMALY":20.2801,"EPHEMERIS_TYPE":0,"CLASSIFICATION_TYPE":"U","NORAD_CAT_ID":41857,"ELEMENT_SET_NO":999,"REV_AT_EPOCH":48762,"BSTAR":0.00014397496,"MEAN_MOTION_DOT":3.47e-6,"MEAN_MOTION_DDOT":0},{"OBJECT_NAME":"DMSP 5D-3 F17 DEB","OBJECT_ID":"2006-050D","EPOCH":"2026-03-09T14:21:14.246784","MEAN_MOTION":14.30905253,"ECCENTRICITY":0.0005738,"INCLINATION":98.5443,"RA_OF_ASC_NODE":89.8351,"ARG_OF_PERICENTER":75.494,"MEAN_ANOMALY":45.9781,"EPHEMERIS_TYPE":0,"CLASSIFICATION_TYPE":"U","NORAD_CAT_ID":29525,"ELEMENT_SET_NO":999,"REV_AT_EPOCH":219,"BSTAR":0.0010117,"MEAN_MOTION_DOT":2.614e-5,"MEAN_MOTION_DDOT":0}]
